{
  "type": "FeatureCollection",
  "features": [
    {
      "type": "Feature",
      "properties": {
        "norad_id": 36528,
        "name": "COSMOS 2251 DEB",
        "group": "cosmos-2251-debris",
        "lat": 71.12536983141135,
        "lon": -81.70765247727012,
        "alt_km": 798.885799108567,
        "timestamp": "2025-12-07T05:38:10.300914+00:00",
        "meta_object_name": "COSMOS 2251 DEB",
        "meta_object_id": "1993-036BCN",
        "meta_epoch": "2025-11-28T19:45:32.756256",
        "meta_mean_motion": 14.30521775,
        "meta_eccentricity": 0.00858193,
        "meta_inclination": 74.0168,
        "meta_ra_of_asc_node": 170.5765,
        "meta_arg_of_pericenter": 223.2164,
        "meta_mean_anomaly": 136.2231,
        "meta_ephemeris_type": 0,
        "meta_classification_type": "U",
        "meta_norad_cat_id": 36528,
        "meta_element_set_no": 999,
        "meta_rev_at_epoch": 64228,
        "meta_bstar": 0.00075224171,
        "meta_mean_motion_dot": 2.015e-05,
        "meta_mean_motion_ddot": 0,
        "tle_line1": "1 36528U 93036BCN 25332.82329579  .00002015  00000+0  75224-3 0  9995",
        "tle_line2": "2 36528  74.0168 170.5765 0085819 223.2164 136.2231 14.30521775642289"
      },
      "geometry": {
        "type": "Point",
        "coordinates": [
          -81.70765247727012,
          71.12536983141135
        ]
      }
    },
    {
      "type": "Feature",
      "properties": {
        "norad_id": 36533,
        "name": "COSMOS 2251 DEB",
        "group": "cosmos-2251-debris",
        "lat": -55.844646433640804,
        "lon": -29.821435478824455,
        "alt_km": 704.7019214019138,
        "timestamp": "2025-12-07T05:38:10.300924+00:00",
        "meta_object_name": "COSMOS 2251 DEB",
        "meta_object_id": "1993-036BCT",
        "meta_epoch": "2025-12-05T09:28:22.802304",
        "meta_mean_motion": 14.49771796,
        "meta_eccentricity": 0.00491042,
        "meta_inclination": 74.0105,
        "meta_ra_of_asc_node": 128.6364,
        "meta_arg_of_pericenter": 279.0553,
        "meta_mean_anomaly": 80.5052,
        "meta_ephemeris_type": 0,
        "meta_classification_type": "U",
        "meta_norad_cat_id": 36533,
        "meta_element_set_no": 999,
        "meta_rev_at_epoch": 84378,
        "meta_bstar": 0.00081257397,
        "meta_mean_motion_dot": 3.153e-05,
        "meta_mean_motion_ddot": 0,
        "tle_line1": "1 36533U 93036BCT 25339.39470836  .00003153  00000+0  81257-3 0  9990",
        "tle_line2": "2 36533  74.0105 128.6364 0049104 279.0553  80.5052 14.49771796843783"
      },
      "geometry": {
        "type": "Point",
        "coordinates": [
          -29.821435478824455,
          -55.844646433640804
        ]
      }
    },
    {
      "type": "Feature",
      "properties": {
        "norad_id": 36539,
        "name": "COSMOS 2251 DEB",
        "group": "cosmos-2251-debris",
        "lat": -67.30529151410668,
        "lon": -71.08300979596318,
        "alt_km": 688.0164695313824,
        "timestamp": "2025-12-07T05:38:10.300945+00:00",
        "meta_object_name": "COSMOS 2251 DEB",
        "meta_object_id": "1993-036BCZ",
        "meta_epoch": "2025-12-06T15:18:53.047008",
        "meta_mean_motion": 14.59237148,
        "meta_eccentricity": 0.00275555,
        "meta_inclination": 74.0248,
        "meta_ra_of_asc_node": 66.8192,
        "meta_arg_of_pericenter": 212.8504,
        "meta_mean_anomaly": 147.095,
        "meta_ephemeris_type": 0,
        "meta_classification_type": "U",
        "meta_norad_cat_id": 36539,
        "meta_element_set_no": 999,
        "meta_rev_at_epoch": 83858,
        "meta_bstar": 0.0013692931,
        "meta_mean_motion_dot": 6.473e-05,
        "meta_mean_motion_ddot": 0,
        "tle_line1": "1 36539U 93036BCZ 25340.63811397  .00006473  00000+0  13693-2 0  9992",
        "tle_line2": "2 36539  74.0248  66.8192 0027555 212.8504 147.0950 14.59237148838583"
      },
      "geometry": {
        "type": "Point",
        "coordinates": [
          -71.08300979596318,
          -67.30529151410668
        ]
      }
    },
    {
      "type": "Feature",
      "properties": {
        "norad_id": 36540,
        "name": "COSMOS 2251 DEB",
        "group": "cosmos-2251-debris",
        "lat": -49.04784432198579,
        "lon": 30.269872164647012,
        "alt_km": 695.4559468196821,
        "timestamp": "2025-12-07T05:38:10.300956+00:00",
        "meta_object_name": "COSMOS 2251 DEB",
        "meta_object_id": "1993-036BDA",
        "meta_epoch": "2025-12-06T15:24:19.698624",
        "meta_mean_motion": 14.58398938,
        "meta_eccentricity": 0.00152428,
        "meta_inclination": 74.0275,
        "meta_ra_of_asc_node": 192.1274,
        "meta_arg_of_pericenter": 262.6337,
        "meta_mean_anomaly": 97.3096,
        "meta_ephemeris_type": 0,
        "meta_classification_type": "U",
        "meta_norad_cat_id": 36540,
        "meta_element_set_no": 999,
        "meta_rev_at_epoch": 85921,
        "meta_bstar": 0.0017594671,
        "meta_mean_motion_dot": 8.148e-05,
        "meta_mean_motion_ddot": 0,
        "tle_line1": "1 36540U 93036BDA 25340.64189466  .00008148  00000+0  17595-2 0  9996",
        "tle_line2": "2 36540  74.0275 192.1274 0015242 262.6337  97.3096 14.58398938859211"
      },
      "geometry": {
        "type": "Point",
        "coordinates": [
          30.269872164647012,
          -49.04784432198579
        ]
      }
    },
    {
      "type": "Feature",
      "properties": {
        "norad_id": 36550,
        "name": "COSMOS 2251 DEB",
        "group": "cosmos-2251-debris",
        "lat": -27.44227136024143,
        "lon": -165.84246233125347,
        "alt_km": 793.3836259005548,
        "timestamp": "2025-12-07T05:38:10.300966+00:00",
        "meta_object_name": "COSMOS 2251 DEB",
        "meta_object_id": "1993-036BDL",
        "meta_epoch": "2025-12-05T23:29:18.021984",
        "meta_mean_motion": 14.27168955,
        "meta_eccentricity": 0.00788112,
        "meta_inclination": 74.0447,
        "meta_ra_of_asc_node": 204.9723,
        "meta_arg_of_pericenter": 257.0912,
        "meta_mean_anomaly": 102.1425,
        "meta_ephemeris_type": 0,
        "meta_classification_type": "U",
        "meta_norad_cat_id": 36550,
        "meta_element_set_no": 999,
        "meta_rev_at_epoch": 84499,
        "meta_bstar": 0.0010210292,
        "meta_mean_motion_dot": 2.55e-05,
        "meta_mean_motion_ddot": 0,
        "tle_line1": "1 36550U 93036BDL 25339.97868081  .00002550  00000+0  10210-2 0  9996",
        "tle_line2": "2 36550  74.0447 204.9723 0078811 257.0912 102.1425 14.27168955844992"
      },
      "geometry": {
        "type": "Point",
        "coordinates": [
          -165.84246233125347,
          -27.44227136024143
        ]
      }
    },
    {
      "type": "Feature",
      "properties": {
        "norad_id": 36551,
        "name": "COSMOS 2251 DEB",
        "group": "cosmos-2251-debris",
        "lat": -21.861813264169164,
        "lon": 19.379287619974807,
        "alt_km": 529.5290594854469,
        "timestamp": "2025-12-07T05:38:10.300976+00:00",
        "meta_object_name": "COSMOS 2251 DEB",
        "meta_object_id": "1993-036BDM",
        "meta_epoch": "2025-12-05T13:46:49.483776",
        "meta_mean_motion": 15.0222551,
        "meta_eccentricity": 0.00508192,
        "meta_inclination": 73.8874,
        "meta_ra_of_asc_node": 29.4559,
        "meta_arg_of_pericenter": 339.5289,
        "meta_mean_anomaly": 20.386,
        "meta_ephemeris_type": 0,
        "meta_classification_type": "U",
        "meta_norad_cat_id": 36551,
        "meta_element_set_no": 999,
        "meta_rev_at_epoch": 66824,
        "meta_bstar": 0.002330761,
        "meta_mean_motion_dot": 0.00031701,
        "meta_mean_motion_ddot": 0,
        "tle_line1": "1 36551U 93036BDM 25339.57418384  .00031701  00000+0  23308-2 0  9992",
        "tle_line2": "2 36551  73.8874  29.4559 0050819 339.5289  20.3860 15.02225510668243"
      },
      "geometry": {
        "type": "Point",
        "coordinates": [
          19.379287619974807,
          -21.861813264169164
        ]
      }
    },
    {
      "type": "Feature",
      "properties": {
        "norad_id": 36557,
        "name": "COSMOS 2251 DEB",
        "group": "cosmos-2251-debris",
        "lat": 72.53181288705973,
        "lon": -156.96882408123645,
        "alt_km": 641.9995831772412,
        "timestamp": "2025-12-07T05:38:10.300986+00:00",
        "meta_object_name": "COSMOS 2251 DEB",
        "meta_object_id": "1993-036BDT",
        "meta_epoch": "2025-12-05T17:31:03.797184",
        "meta_mean_motion": 14.7773075,
        "meta_eccentricity": 0.00207314,
        "meta_inclination": 73.9789,
        "meta_ra_of_asc_node": 140.0591,
        "meta_arg_of_pericenter": 291.0681,
        "meta_mean_anomaly": 68.8277,
        "meta_ephemeris_type": 0,
        "meta_classification_type": "U",
        "meta_norad_cat_id": 36557,
        "meta_element_set_no": 999,
        "meta_rev_at_epoch": 33793,
        "meta_bstar": 0.0052902478,
        "meta_mean_motion_dot": 0.00038255,
        "meta_mean_motion_ddot": 0,
        "tle_line1": "1 36557U 93036BDT 25339.72990506  .00038255  00000+0  52902-2 0  9999",
        "tle_line2": "2 36557  73.9789 140.0591 0020731 291.0681  68.8277 14.77730750337935"
      },
      "geometry": {
        "type": "Point",
        "coordinates": [
          -156.96882408123645,
          72.53181288705973
        ]
      }
    }
  ]
}